from .services import Services, _Helper
from scheduler.TLEServices import TLE_Services
from scheduler.missionServices import mission_services
from .models import TLE, AzEl, NextPass, Mission
from django.test import TestCase
from datetime import date, datetime, timedelta
import ephem
# Create your tests here. 

class TLEServicesTests(TestCase):
    def test_FindById_is_correct(self):
        t1 = TLE(id = '0',
                name="EYESAT-1 (AO-27)",
                 line1="1 22825U 93061C   17011.87921041 -.00000014  00000-0  12008-4 0  9991",
                 line2="2 22825  98.7903 335.7306 0009458  70.2997 289.9204 14.29982572215061")

        t2 = TLE(name='TIANWANG 1A (TW-1A)',
                 line1='1 40928U 15051D   17012.78841078  .00002327  00000-0  71003-4 0  9998',
                 line2='2 40928  97.2476  51.3649 0014522  42.3053  46.5607 15.34836540 72858')

        t3 = TLE(name='SWISSCUBE',
                 line1='1 35932U 09051B   17012.34187112  .00000118  00000-0  37698-4 0  9992',
                 line2='2 35932  98.4726 148.2822 0007800  18.8768 341.2717 14.55942386387640')

        print(repr(t1))
        t1.save()
        t2.save()
        t3.save()
        
        tleEntry = TLE_Services.findTLEById(0)
        print(repr(shouldBe))
        """
        shouldBe = TLE(id = '0',"EYESAT-1 (AO-27)",
                "1 22825U 93061C   17011.87921041 -.00000014  00000-0  12008-4 0  9991",
                "2 22825  98.7903 335.7306 0009458  70.2997 289.9204 14.29982572215061")

        print(repr(shouldBe))

        tleEntry1 = TLE_Services.findTLEById(1)
        shouldBe1 = TLE('1',"TIANWANG 1A (TW-1A)",
                 "1 40928U 15051D   17012.78841078  .00002327  00000-0  71003-4 0  9998",
                 "2 40928  97.2476  51.3649 0014522  42.3053  46.5607 15.34836540 72858")

        tleEntry2 = TLE_Services.findTLEById(2)
        shouldBe2 = TLE('2',"SWISSCUBE",
                 "1 35932U 09051B   17012.34187112  .00000118  00000-0  37698-4 0  9992",
                 "2 35932  98.4726 148.2822 0007800  18.8768 341.2717 14.55942386387640")
        """
        self.assertIs(tleEntry == (t1), True)
       #self.assertIs(tleEntry1 == (shouldBe1), True)
       #self.assertIs(tleEntry2 == (shouldBe2), True)

"""
    def test_FindByName_is_correct(self):

         t1 = TLE(name="EYESAT-1 (AO-27)",
                 line1="1 22825U 93061C   17011.87921041 -.00000014  00000-0  12008-4 0  9991",
                 line2="2 22825  98.7903 335.7306 0009458  70.2997 289.9204 14.29982572215061")

        t2 = TLE(name='TIANWANG 1A (TW-1A)',
                 line1='1 40928U 15051D   17012.78841078  .00002327  00000-0  71003-4 0  9998',
                 line2='2 40928  97.2476  51.3649 0014522  42.3053  46.5607 15.34836540 72858')
        t3 = TLE(name='SWISSCUBE',
                 line1='1 35932U 09051B   17012.34187112  .00000118  00000-0  37698-4 0  9992',
                 line2='2 35932  98.4726 148.2822 0007800  18.8768 341.2717 14.55942386387640')
        t1.save()
        t2.save()
        t3.save()
        tleEntry = TLE_Services.findTLEByName("NANOSATC-BR1")
        shouldBe = TLE(name ="NANOSATC-BR1",
                        line1 ='1 40024U 14033Q   17021.95106765  .00000421  00000-0  50647-4 0  9994',
                        line2 ='2 40024  97.9211 293.9798 0013770  65.7971 294.4683 14.89043048140788',)
        self.assertIs(tleEntry == (shouldBe), True)

    def test_saveTLE_is_correct(self):
        tleEntry = TLE_Services.findTLEByName("NANOSATC-BR1")
        shouldBe = TLE('45', "NANOSATC-BR1",
                        '1 40024U 14033Q   17021.95106765  .00000421  00000-0  50647-4 0  9994',
                        '2 40024  97.9211 293.9798 0013770  65.7971 294.4683 14.89043048140788',)
        self.assertIs(tleEntry == (shouldBe), True)

    def test_removeTLE_is_correct(self):
        tleEntry = TLE_Services.findTLEByName("NANOSATC-BR1")
        shouldBe = TLE('45', "NANOSATC-BR1",
                        '1 40024U 14033Q   17021.95106765  .00000421  00000-0  50647-4 0  9994',
                        '2 40024  97.9211 293.9798 0013770  65.7971 294.4683 14.89043048140788',)
        self.assertIs(tleEntry == (shouldBe), True)
"""
class pyephemTests(TestCase):
    def test_getazeldata_is_correct1(self):
        # test needs to be updated in roughly early 2018 to a newer time if datetime
        # is too far from the epoch of the satellite: 11/01/17
        tleEntry = TLE('0', 'EYESAT-1 (AO-27)',
                       '1 22825U 93061C   17011.87921041 -.00000014  00000-0  12008-4 0  9991',
                       '2 22825  98.7903 335.7306 0009458  70.2997 289.9204 14.29982572215061', )
        # azel = Services.getAzElTLE(self, tleEntry ,datetime(2017,1,1,12,0,0))
        azel = Services.getAzElTLE(self, tleEntry, datetime(2017, 1, 1, 12, 0, 0))
        # degrees minutes seconds -> decimal degrees -> radians
        shouldBe = AzEl(0, 4.355794429779053, -1.4003942012786865)
        self.assertIs(shouldBe == (azel), True)

        # self.assertIs(shouldBe.elevation == azel.elevation,True)

    def test_getazeldata_is_correct2(self):
        # test needs to be updated in roughly early 2018 to a newer time if datetime
        # is too far from the epoch of the satellite: 17/01/17
        tleEntry = TLE('0', 'PROMETHEUS 2-3',
                       '1 41855U 16067H   17017.17439223 -.00000035  00000-0  22910-5 0  9998',
                       '2 41855  97.9660  92.6242 0012070  83.3470 276.9124 14.95885483  9917', )
        azel = Services.getAzElTLE(self, tleEntry, datetime(2017, 6, 6, 12, 0, 0))
        shouldBe = AzEl(0, 3.1872448921203613, -1.5055859088897705)
        self.assertIs(shouldBe == (azel), True)

    # self.assertIs(shouldBe.elevation == azel.elevation,True)

    def test_getazeldata_is_correct3(self):
        # test needs to be updated in roughly early 2018 to a newer time if datetime
        # is too far from the epoch of the satellite: 17/01/17
        tleEntry = TLE('0', 'PROMETHEUS 2-3',
                       '1 41855U 16067H   17017.17439223 -.00000035  00000-0  22910-5 0  9998',
                       '2 41855  97.9660  92.6242 0012070  83.3470 276.9124 14.95885483  9917', )
        azel = Services.getAzElTLE(self, tleEntry, datetime(2017, 6, 6, 12, 0, 0))
        shouldBe = AzEl(0, 3.18724345421203613, -1.5055834588897705)
        self.assertIs(shouldBe == azel, False)

    def test_getAzElForPeriod_is_correct(self):
        tleEntry = TLE('0', 'PROMETHEUS 2-3',
                       '1 41855U 16067H   17017.17439223 -.00000035  00000-0  22910-5 0  9998',
                       '2 41855  97.9660  92.6242 0012070  83.3470 276.9124 14.95885483  9917', )
        # tleEntry, riseTime, setTime, period in seconds
        azelList = Services.getAzElForPeriod(self, tleEntry, datetime(2017, 6, 6, 12, 2, 42),
                                             datetime(2017, 6, 6, 12, 9, 2), 30)
        shouldBe = []
        shouldBe.append(AzEl(0, 0.8919017910957336, -1.534958004951477))
        shouldBe.append(AzEl(0, 0.7173821926116943, -1.5194507837295532))
        shouldBe.append(AzEl(0, 0.6259355545043945, -1.5030969381332397))
        shouldBe.append(AzEl(0, 0.570842981338501, -1.4863852262496948))
        shouldBe.append(AzEl(0, 0.5344333648681641, -1.4694904088974))
        shouldBe.append(AzEl(0, 0.5087897181510925, -1.4524891376495361))
        shouldBe.append(AzEl(0, 0.4898819625377655, -1.4354195594787598))
        shouldBe.append(AzEl(0, 0.4754546880722046, -1.4183026552200317))
        shouldBe.append(AzEl(0, 0.46415090560913086, -1.4011510610580444))
        shouldBe.append(AzEl(0, 0.4551066756248474, -1.383972406387329))
        shouldBe.append(AzEl(0, 0.4477463364601135, -1.3667718172073364))
        shouldBe.append(AzEl(0, 0.4416716694831848, -1.3495526313781738))
        shouldBe.append(AzEl(0, 0.43659859895706177, -1.3323169946670532))
        self.assertIs(len(shouldBe) == len(azelList), True)

        for val in shouldBe:
            self.assertIs(val in azelList, True)

    def test_getAzElForPeriod_is_incorrect(self):
        tleEntry = TLE('0', 'PROMETHEUS 2-3',
                       '1 41855U 16067H   17017.17439223 -.00000035  00000-0  22910-5 0  9998',
                       '2 41855  97.9660  92.6242 0012070  83.3470 276.9124 14.95885483  9917', )
        # tleEntry, riseTime, setTime, period in seconds
        azelList = Services.getAzElForPeriod(self, tleEntry, datetime(2017, 6, 6, 12, 2, 42),
                                             datetime(2017, 6, 6, 12, 9, 2), 30)
        shouldBe = []
        shouldBe.append(AzEl(0, 0.8919017913454357336, -1.534958004951477))
        shouldBe.append(AzEl(0, 0.71738214353116943, -1.5194507837295532))
        shouldBe.append(AzEl(0, 0.6259355545043945, -1.5030969381332397))
        shouldBe.append(AzEl(0, 0.570842981338501, -1.4863852262496948))
        shouldBe.append(AzEl(0, 0.53443336486341641, -1.4694904088974))
        shouldBe.append(AzEl(0, 0.5087897181510925, -1.4524891376495361))
        shouldBe.append(AzEl(0, 0.48988196253745655, -1.4354195594787598))
        shouldBe.append(AzEl(0, 0.4754546880722046, -1.4183026552200317))
        shouldBe.append(AzEl(0, 0.46415090560913086, -1.4011510610580444))
        shouldBe.append(AzEl(0, 0.4551066756248474, -1.383972406387329))
        shouldBe.append(AzEl(0, 0.4477463364601135, -1.3667718172073364))
        shouldBe.append(AzEl(0, 0.4416716694831848, -1.3495526313781738))
        shouldBe.append(AzEl(0, 0.4365985989570617, -1.3323169946670532))

        self.assertIs(len(shouldBe) == len(azelList), True)

        badEntry = False
        for val in shouldBe:
            if val not in azelList:
                badEntry = True
        self.assertIs(badEntry, True)

